      2.10          N: GNSS NAV DATA                        RINEX VERSION / TYPE
fic2rin                                 01/21/2024 00:18:13 PGM / RUN BY / DATE
                                                            END OF HEADER
12 24  1 20 16  0  0.0 -.469807535410D-03 -.386535248253D-11  .000000000000D+00
     .105000000000D+03  .817187500000D+02  .428267839075D-08  .167311238716D+01
     .396184623241D-05  .893262343016D-02  .993162393570D-05  .515372710037D+04
     .576000000000D+06 -.484287738800D-07  .237361518493D+01 -.236555933952D-06
     .963276091584D+00  .186562500000D+03  .140689046147D+01 -.778996734055D-08
    -.306798493674D-09  .100000000000D+01  .229700000000D+04  .000000000000D+00
     .340000000000D+01  .000000000000D+00 -.125728547573D-07  .105000000000D+03
     .568800000000D+06  .400000000000D+01
11 24  1 20 16  0  0.0 -.546876806766D-03 -.137561073643D-10  .000000000000D+00
     .234000000000D+03 -.681250000000D+02  .435732435719D-08 -.187358479396D+01
    -.340677797794D-05  .127251772210D-02  .338256359100D-05  .515365599632D+04
     .576000000000D+06 -.745058059692D-08 -.183640005842D+01 -.279396772385D-07
     .965952073038D+00  .318875000000D+03 -.246937999824D+01 -.820819904729D-08
    -.115004790411D-09  .100000000000D+01  .229700000000D+04  .000000000000D+00
     .240000000000D+01  .000000000000D+00 -.838190317154D-08  .490000000000D+03
     .568800000000D+06  .400000000000D+01
14 24  1 20 16  0  0.0  .303827691823D-03  .102318153949D-10  .000000000000D+00
     .149000000000D+03  .685000000000D+02  .480377152494D-08  .167730016864D+01
     .362843275070D-05  .387801008765D-02  .889785587788D-05  .515368840599D+04
     .576000000000D+06  .316649675369D-07  .233119451783D+01  .931322574615D-07
     .946575190576D+00  .201375000000D+03 -.296720465838D+01 -.809962309610D-08
    -.346800159904D-09  .100000000000D+01  .229700000000D+04  .000000000000D+00
     .240000000000D+01  .000000000000D+00 -.791624188423D-08  .661000000000D+03
     .568800000000D+06  .400000000000D+01
29 24  1 20 16  0  0.0 -.608425121754D-03  .568434188608D-12  .000000000000D+00
     .520000000000D+02  .942187500000D+02  .425482008748D-08 -.108359034092D+01
     .476837158203D-05  .255394296255D-02  .404566526413D-05  .515365979195D+04
     .576000000000D+06 -.651925802231D-07 -.285603750476D+01 -.298023223877D-07
     .973526882914D+00  .308281250000D+03  .252395770037D+01 -.813212444991D-08
     .803604901941D-10  .100000000000D+01  .229700000000D+04  .000000000000D+00
     .240000000000D+01  .000000000000D+00 -.102445483208D-07  .520000000000D+02
     .568800000000D+06  .400000000000D+01
21 24  1 20 16  0  0.0  .137774273753D-03 -.125055521494D-11  .000000000000D+00
     .290000000000D+02 -.413437500000D+02  .452268838813D-08 -.110375523590D+01
    -.225193798542D-05  .252385149943D-01  .341981649399D-05  .515373040199D+04
     .576000000000D+06 -.294297933578D-06 -.197428468534D+01 -.225380063057D-06
     .961748521303D+00  .318531250000D+03 -.647238449359D+00 -.851392606777D-08
     .243581574722D-09  .100000000000D+01  .229700000000D+04  .000000000000D+00
     .240000000000D+01  .000000000000D+00 -.102445483208D-07  .290000000000D+02
     .568800000000D+06  .400000000000D+01
26 24  1 20 16  0  0.0  .198505353183D-03 -.363797880709D-11  .000000000000D+00
     .400000000000D+02  .540937500000D+02  .514914305390D-08  .733275050546D+00
     .309385359287D-05  .877176458016D-02  .932998955250D-05  .515357519531D+04
     .576000000000D+06 -.596046447754D-07  .222842769144D+01  .158324837685D-06
     .931795206336D+00  .181937500000D+03  .521871460921D+00 -.827927343640D-08
    -.455376111100D-09  .100000000000D+01  .229700000000D+04  .000000000000D+00
     .240000000000D+01  .000000000000D+00  .698491930962D-08  .400000000000D+02
     .568800000000D+06  .400000000000D+01
25 24  1 20 16  0  0.0  .485917553306D-03  .125055521494D-11  .000000000000D+00
     .500000000000D+02  .728750000000D+02  .465590822298D-08  .154700658852D+01
     .363029539585D-05  .117659673560D-01  .103246420622D-04  .515362827873D+04
     .576000000000D+06 -.303611159325D-06  .228852580418D+01 -.931322574615D-07
     .951067730074D+00  .175531250000D+03  .106932927566D+01 -.804783522464D-08
    -.364658046614D-09  .100000000000D+01  .229700000000D+04  .000000000000D+00
     .240000000000D+01  .000000000000D+00  .558793544769D-08  .500000000000D+02
     .568800000000D+06  .400000000000D+01
31 24  1 20 16  0  0.0 -.227417796850D-03 -.227373675443D-12  .000000000000D+00
     .114000000000D+03 -.734375000000D+01  .503985278724D-08  .151861603725D+01
    -.232830643654D-06  .106054831995D-01  .748410820961D-05  .515366468620D+04
     .576000000000D+06 -.176951289177D-06  .127890995379D+01  .113621354103D-06
     .953962954672D+00  .236062500000D+03  .652771443991D+00 -.819641284207D-08
    -.330013746397D-09  .100000000000D+01  .229700000000D+04  .000000000000D+00
     .240000000000D+01  .000000000000D+00 -.135041773319D-07  .114000000000D+03
     .568800000000D+06  .400000000000D+01
32 24  1 20 16  0  0.0 -.606458634138D-03 -.272848410532D-11  .000000000000D+00
     .590000000000D+02 -.131875000000D+02  .470162441296D-08 -.313497783835D+00
    -.607222318649D-06  .742139213253D-02  .816397368908D-05  .515362021255D+04
     .576000000000D+06 -.558793544769D-08  .200076239807D+00  .596046447754D-07
     .961445561210D+00  .224812500000D+03 -.219450613365D+01 -.805819279893D-08
     .440732643998D-09  .100000000000D+01  .229700000000D+04  .000000000000D+00
     .240000000000D+01  .000000000000D+00  .465661287308D-09  .590000000000D+02
     .568800000000D+06  .400000000000D+01
16 24  1 20 16  0  0.0 -.380194745958D-03  .784439180279D-11  .000000000000D+00
     .112000000000D+03  .618125000000D+02  .448518682603D-08 -.802552133061D-01
     .345148146152D-05  .139535776107D-01  .924617052078D-05  .515371984291D+04
     .576000000000D+06  .223517417908D-07  .239162221138D+01  .199303030968D-06
     .962846211644D+00  .201468750000D+03  .818758222509D+00 -.809712299196D-08
    -.302155443130D-09  .100000000000D+01  .229700000000D+04  .000000000000D+00
     .340000000000D+01  .000000000000D+00 -.102445483208D-07  .112000000000D+03
     .568800000000D+06  .400000000000D+01
22 24  1 20 16  0  0.0  .449824146926D-04 -.648014975013D-11  .000000000000D+00
     .600000000000D+02  .670625000000D+02  .453447459335D-08 -.508985842949D+00
     .349432229996D-05  .146224135533D-01  .889785587788D-05  .515372180748D+04
     .576000000000D+06 -.160187482834D-06  .239492193429D+01 -.856816768646D-07
     .962139749485D+00  .213281250000D+03 -.114597816330D+01 -.816998316974D-08
    -.193579491934D-09  .100000000000D+01  .229700000000D+04  .000000000000D+00
     .240000000000D+01  .000000000000D+00 -.111758708954D-07  .600000000000D+02
     .568800000000D+06  .400000000000D+01
17 24  1 20 16  0  0.0  .719399657100D-03 -.102318153949D-11  .000000000000D+00
     .610000000000D+02  .752187500000D+02  .442804158856D-08 -.102665795217D+01
     .405125319958D-05  .136642400175D-01  .458583235741D-05  .515365678406D+04
     .576000000000D+06 -.163912773132D-06 -.287071807055D+01  .670552253723D-07
     .971162094857D+00  .302937500000D+03 -.134461714900D+01 -.833820446254D-08
     .750031241812D-10  .100000000000D+01  .229700000000D+04  .000000000000D+00
     .340000000000D+01  .000000000000D+00 -.111758708954D-07  .610000000000D+02
     .568800000000D+06  .400000000000D+01
19 24  1 20 16  0  0.0  .429211184382D-03  .522959453519D-11  .000000000000D+00
     .730000000000D+02  .708125000000D+02  .440839791318D-08  .101525156821D+01
     .352412462234D-05  .943042547442D-02  .368617475033D-05  .515368196678D+04
     .576000000000D+06  .266358256340D-06 -.282634039503D+01 -.113621354103D-06
     .970305063318D+00  .311781250000D+03  .247224988949D+01 -.819855578847D-08
    -.185722021782D-10  .100000000000D+01  .229700000000D+04  .000000000000D+00
     .240000000000D+01  .000000000000D+00 -.153668224812D-07  .730000000000D+02
     .568800000000D+06  .400000000000D+01
23 24  1 20 16  0  0.0  .139188021421D-03  .761701812735D-11  .000000000000D+00
     .600000000000D+01 -.103625000000D+03  .387123268095D-08  .209499369580D+01
    -.528246164322D-05  .395689893048D-02  .875629484653D-05  .515370944595D+04
     .576000000000D+06 -.745058059692D-07 -.865792065726D+00  .931322574615D-07
     .977362368849D+00  .217593750000D+03 -.297933232387D+01 -.771353558543D-08
     .166078346401D-09  .100000000000D+01  .229700000000D+04  .000000000000D+00
     .240000000000D+01  .000000000000D+00 -.838190317154D-08  .262000000000D+03
     .568800000000D+06  .400000000000D+01
24 24  1 20 16  0  0.0 -.417375005782D-03 -.693489710102D-11  .000000000000D+00
     .146000000000D+03 -.281250000000D+00  .539093883996D-08 -.285853243694D+01
    -.176951289177D-06  .150609161938D-01  .682659447193D-05  .515372501373D+04
     .576000000000D+06  .189989805222D-06  .116308276094D+01 -.251457095146D-06
     .933666133731D+00  .230906250000D+03  .964099863681D+00 -.811890961375D-08
    -.112504686272D-09  .100000000000D+01  .229700000000D+04  .000000000000D+00
     .240000000000D+01  .000000000000D+00  .232830643654D-08  .146000000000D+03
     .568800000000D+06  .400000000000D+01
30 24  1 20 16  0  0.0 -.443076714873D-03  .466116034659D-11  .000000000000D+00
     .820000000000D+02 -.178125000000D+01  .539415325956D-08  .227098112275D+01
    -.949949026108D-07  .671290734317D-02  .727735459805D-05  .515369887543D+04
     .576000000000D+06 -.143423676491D-06  .126045502863D+01 -.670552253723D-07
     .935092968936D+00  .228687500000D+03 -.254459744394D+01 -.826605860023D-08
    -.165721188667D-09  .100000000000D+01  .229700000000D+04  .000000000000D+00
     .240000000000D+01  .000000000000D+00  .372529029846D-08  .820000000000D+02
     .568800000000D+06  .400000000000D+01
